start=new Date('2021-12-10T00:00:00.000Z').valueOf();
sats=[{"BSTAR":"0.00006637700000","CLASSIFICATION_TYPE":"U","GP_ID":"191395979","ELEMENT_SET_NO":"999","MEAN_MOTION_DOT":"0.00000707","TIME_SYSTEM":"UTC","OBJECT_ID":"2020-012AC","LAUNCH_DATE":"2020-02-17","SITE":"AFETR","TLE_LINE1":"1 45204U 20012AC  21343.90130826  .00000707  00000-0  66377-4 0  9999","TLE_LINE2":"2 45204  53.0552 148.3650 0002126  85.9700 274.1532 15.06384480101391","REV_AT_EPOCH":"10139","CENTER_NAME":"EARTH","DECAY_DATE":null,"ARG_OF_PERICENTER":"85.9700","ECCENTRICITY":"0.00021260","EPHEMERIS_TYPE":"0","PERIOD":"95.593","EPOCH":"2021-12-09T21:37:53.033664","MEAN_MOTION_DDOT":"0.0000000000000","RA_OF_ASC_NODE":"148.3650","FILE":"3236488","NORAD_CAT_ID":"45204","RCS_SIZE":"LARGE","MEAN_MOTION":"15.06384480","COUNTRY_CODE":"US","INCLINATION":"53.0552","OBJECT_NAME":"STARLINK-1206","APOAPSIS":"548.733","PERIAPSIS":"545.789","OBJECT_TYPE":"PAYLOAD","MEAN_ANOMALY":"274.1532","SEMIMAJOR_AXIS":"6925.396","MEAN_ELEMENT_THEORY":"SGP4","REF_FRAME":"TEME"},{"MEAN_MOTION_DOT":"0.00000303","OBJECT_ID":"2020-012AD","LAUNCH_DATE":"2020-02-17","TIME_SYSTEM":"UTC","GP_ID":"191396729","ELEMENT_SET_NO":"999","BSTAR":"0.00003922500000","CLASSIFICATION_TYPE":"U","EPHEMERIS_TYPE":"0","PERIOD":"95.593","EPOCH":"2021-12-09T20:34:10.484256","DECAY_DATE":null,"TLE_LINE1":"1 45205U 20012AD  21343.85706579  .00000303  00000-0  39225-4 0  9992","SITE":"AFETR","TLE_LINE2":"2 45205  53.0533 148.5694 0001416  95.7502 264.3648 15.06382473101390","REV_AT_EPOCH":"10139","CENTER_NAME":"EARTH","ECCENTRICITY":"0.00014160","ARG_OF_PERICENTER":"95.7502","RCS_SIZE":"LARGE","MEAN_MOTION":"15.06382473","COUNTRY_CODE":"US","MEAN_MOTION_DDOT":"0.0000000000000","RA_OF_ASC_NODE":"148.5694","NORAD_CAT_ID":"45205","FILE":"3236488","MEAN_ELEMENT_THEORY":"SGP4","SEMIMAJOR_AXIS":"6925.402","REF_FRAME":"TEME","APOAPSIS":"548.248","PERIAPSIS":"546.287","OBJECT_NAME":"STARLINK-1208","INCLINATION":"53.0533","OBJECT_TYPE":"PAYLOAD","MEAN_ANOMALY":"264.3648"},{"LAUNCH_DATE":"2020-02-17","OBJECT_ID":"2020-012AE","TIME_SYSTEM":"UTC","MEAN_MOTION_DOT":"0.00000383","ELEMENT_SET_NO":"999","GP_ID":"191396981","CLASSIFICATION_TYPE":"U","BSTAR":"0.00004459100000","PERIOD":"95.592","EPOCH":"2021-12-09T19:38:25.370016","EPHEMERIS_TYPE":"0","ECCENTRICITY":"0.00018580","ARG_OF_PERICENTER":"96.9658","DECAY_DATE":null,"TLE_LINE2":"2 45206  53.0548 128.7605 0001858  96.9658 263.1543 15.06401059100699","REV_AT_EPOCH":"10069","CENTER_NAME":"EARTH","TLE_LINE1":"1 45206U 20012AE  21343.81834919  .00000383  00000-0  44591-4 0  9999","SITE":"AFETR","COUNTRY_CODE":"US","RCS_SIZE":"LARGE","MEAN_MOTION":"15.06401059","NORAD_CAT_ID":"45206","FILE":"3236488","RA_OF_ASC_NODE":"128.7605","MEAN_MOTION_DDOT":"0.0000000000000","REF_FRAME":"TEME","MEAN_ELEMENT_THEORY":"SGP4","SEMIMAJOR_AXIS":"6925.345","MEAN_ANOMALY":"263.1543","OBJECT_TYPE":"PAYLOAD","APOAPSIS":"548.497","PERIAPSIS":"545.924","OBJECT_NAME":"STARLINK-1209","INCLINATION":"53.0548"},{"GP_ID":"191397731","ELEMENT_SET_NO":"999","BSTAR":"0.00003762900000","CLASSIFICATION_TYPE":"U","OBJECT_ID":"2020-012AF","LAUNCH_DATE":"2020-02-17","TIME_SYSTEM":"UTC","MEAN_MOTION_DOT":"0.00000279","ECCENTRICITY":"0.00019600","ARG_OF_PERICENTER":"91.0466","DECAY_DATE":null,"SITE":"AFETR","TLE_LINE1":"1 45207U 20012AF  21343.87915273  .00000279  00000-0  37629-4 0  9997","TLE_LINE2":"2 45207  53.0535 148.4713 0001960  91.0466 269.0748 15.06399363101374","REV_AT_EPOCH":"10137","CENTER_NAME":"EARTH","PERIOD":"95.592","EPOCH":"2021-12-09T21:05:58.795872","EPHEMERIS_TYPE":"0","NORAD_CAT_ID":"45207","FILE":"3236488","MEAN_MOTION_DDOT":"0.0000000000000","RA_OF_ASC_NODE":"148.4713","COUNTRY_CODE":"US","MEAN_MOTION":"15.06399363","RCS_SIZE":"LARGE","OBJECT_TYPE":"PAYLOAD","MEAN_ANOMALY":"269.0748","APOAPSIS":"548.573","PERIAPSIS":"545.858","INCLINATION":"53.0535","OBJECT_NAME":"STARLINK-1210","REF_FRAME":"TEME","MEAN_ELEMENT_THEORY":"SGP4","SEMIMAJOR_AXIS":"6925.351"},{"PERIAPSIS":"548.285","APOAPSIS":"551.184","INCLINATION":"52.9985","OBJECT_NAME":"STARLINK-1211","MEAN_ANOMALY":"267.3249","OBJECT_TYPE":"PAYLOAD","MEAN_ELEMENT_THEORY":"SGP4","SEMIMAJOR_AXIS":"6927.870","REF_FRAME":"TEME","RA_OF_ASC_NODE":"148.8136","MEAN_MOTION_DDOT":"0.0000000000000","FILE":"3236488","NORAD_CAT_ID":"45208","MEAN_MOTION":"15.05577829","RCS_SIZE":"LARGE","COUNTRY_CODE":"US","DECAY_DATE":null,"REV_AT_EPOCH":"10127","TLE_LINE2":"2 45208  52.9985 148.8136 0002092  92.7978 267.3249 15.05577829101278","CENTER_NAME":"EARTH","SITE":"AFETR","TLE_LINE1":"1 45208U 20012AG  21343.80284902  .00000232  00000-0  35130-4 0  9993","ECCENTRICITY":"0.00020920","ARG_OF_PERICENTER":"92.7978","EPHEMERIS_TYPE":"0","PERIOD":"95.644","EPOCH":"2021-12-09T19:16:06.155328","ELEMENT_SET_NO":"999","GP_ID":"191396479","CLASSIFICATION_TYPE":"U","BSTAR":"0.00003513000000","MEAN_MOTION_DOT":"0.00000232","LAUNCH_DATE":"2020-02-17","OBJECT_ID":"2020-012AG","TIME_SYSTEM":"UTC"},{"GP_ID":"191396230","ELEMENT_SET_NO":"999","BSTAR":"0.00012899000000","CLASSIFICATION_TYPE":"U","LAUNCH_DATE":"2020-02-17","OBJECT_ID":"2020-012AH","TIME_SYSTEM":"UTC","MEAN_MOTION_DOT":"0.00020544","ECCENTRICITY":"0.00025620","ARG_OF_PERICENTER":"25.2499","DECAY_DATE":null,"SITE":"AFETR","TLE_LINE1":"1 45209U 20012AH  21343.86550069  .00020544  00000-0  12899-3 0  9994","CENTER_NAME":"EARTH","TLE_LINE2":"2 45209  53.0526  71.0483 0002562  25.2499 334.8646 15.76764821102400","REV_AT_EPOCH":"10240","PERIOD":"91.326","EPOCH":"2021-12-09T20:46:19.259616","EPHEMERIS_TYPE":"0","NORAD_CAT_ID":"45209","FILE":"3236488","MEAN_MOTION_DDOT":"0.0000000000000","RA_OF_ASC_NODE":"71.0483","COUNTRY_CODE":"US","RCS_SIZE":"LARGE","MEAN_MOTION":"15.76764821","MEAN_ANOMALY":"334.8646","OBJECT_TYPE":"PAYLOAD","PERIAPSIS":"337.895","APOAPSIS":"341.337","OBJECT_NAME":"STARLINK-1218","INCLINATION":"53.0526","REF_FRAME":"TEME","MEAN_ELEMENT_THEORY":"SGP4","SEMIMAJOR_AXIS":"6717.751"},{"TIME_SYSTEM":"UTC","OBJECT_ID":"2020-012AJ","LAUNCH_DATE":"2020-02-17","MEAN_MOTION_DOT":"0.00000186","BSTAR":"0.00003140300000","CLASSIFICATION_TYPE":"U","GP_ID":"191397481","ELEMENT_SET_NO":"999","EPOCH":"2021-12-09T21:11:20.213376","PERIOD":"95.593","EPHEMERIS_TYPE":"0","ARG_OF_PERICENTER":"91.0913","ECCENTRICITY":"0.00020890","TLE_LINE1":"1 45210U 20012AJ  21343.88287284  .00000186  00000-0  31403-4 0  9997","SITE":"AFETR","REV_AT_EPOCH":"10126","TLE_LINE2":"2 45210  53.0539 148.4705 0002089  91.0913 269.0316 15.06392287101260","CENTER_NAME":"EARTH","DECAY_DATE":null,"COUNTRY_CODE":"US","RCS_SIZE":"LARGE","MEAN_MOTION":"15.06392287","FILE":"3236488","NORAD_CAT_ID":"45210","MEAN_MOTION_DDOT":"0.0000000000000","RA_OF_ASC_NODE":"148.4705","REF_FRAME":"TEME","SEMIMAJOR_AXIS":"6925.372","MEAN_ELEMENT_THEORY":"SGP4","OBJECT_TYPE":"PAYLOAD","MEAN_ANOMALY":"269.0316","OBJECT_NAME":"STARLINK-1219","INCLINATION":"53.0539","APOAPSIS":"548.684","PERIAPSIS":"545.790"},{"MEAN_MOTION_DOT":"0.00000200","OBJECT_ID":"2020-012AL","LAUNCH_DATE":"2020-02-17","TIME_SYSTEM":"UTC","GP_ID":"191397232","ELEMENT_SET_NO":"999","BSTAR":"0.00003234200000","CLASSIFICATION_TYPE":"U","EPHEMERIS_TYPE":"0","EPOCH":"2021-12-09T20:23:33.540864","PERIOD":"95.593","DECAY_DATE":null,"TLE_LINE1":"1 45212U 20012AL  21343.84969376  .00000200  00000-0  32342-4 0  9994","SITE":"AFETR","TLE_LINE2":"2 45212  53.0523 148.6120 0002103  88.0885 272.0345 15.06381332101321","REV_AT_EPOCH":"10132","CENTER_NAME":"EARTH","ECCENTRICITY":"0.00021030","ARG_OF_PERICENTER":"88.0885","RCS_SIZE":"LARGE","MEAN_MOTION":"15.06381332","COUNTRY_CODE":"US","MEAN_MOTION_DDOT":"0.0000000000000","RA_OF_ASC_NODE":"148.6120","FILE":"3236488","NORAD_CAT_ID":"45212","MEAN_ELEMENT_THEORY":"SGP4","SEMIMAJOR_AXIS":"6925.406","REF_FRAME":"TEME","PERIAPSIS":"545.814","APOAPSIS":"548.727","OBJECT_NAME":"STARLINK-1231","INCLINATION":"53.0523","MEAN_ANOMALY":"272.0345","OBJECT_TYPE":"PAYLOAD"},{"MEAN_ELEMENT_THEORY":"SGP4","SEMIMAJOR_AXIS":"6925.394","REF_FRAME":"TEME","APOAPSIS":"548.515","PERIAPSIS":"546.003","OBJECT_NAME":"STARLINK-1232","INCLINATION":"53.0544","MEAN_ANOMALY":"294.6184","OBJECT_TYPE":"PAYLOAD","MEAN_MOTION":"15.06385197","RCS_SIZE":"LARGE","COUNTRY_CODE":"US","MEAN_MOTION_DDOT":"0.0000000000000","RA_OF_ASC_NODE":"148.6081","NORAD_CAT_ID":"45213","FILE":"3236488","EPHEMERIS_TYPE":"0","EPOCH":"2021-12-09T20:28:50.826720","PERIOD":"95.593","DECAY_DATE":null,"SITE":"AFETR","TLE_LINE1":"1 45213U 20012AM  21343.85336605 -.00001711  00000-0 -96030-4 0  9993","CENTER_NAME":"EARTH","TLE_LINE2":"2 45213  53.0544 148.6081 0001814  65.4994 294.6184 15.06385197101378","REV_AT_EPOCH":"10137","ECCENTRICITY":"0.00018140","ARG_OF_PERICENTER":"65.4994","MEAN_MOTION_DOT":"-0.00001711","OBJECT_ID":"2020-012AM","LAUNCH_DATE":"2020-02-17","TIME_SYSTEM":"UTC","GP_ID":"191395980","ELEMENT_SET_NO":"999","BSTAR":"-0.00009603000000","CLASSIFICATION_TYPE":"U"},{"RA_OF_ASC_NODE":"149.3150","MEAN_MOTION_DDOT":"0.0000000000000","FILE":"3236488","NORAD_CAT_ID":"45214","RCS_SIZE":"LARGE","MEAN_MOTION":"15.06392989","COUNTRY_CODE":"US","INCLINATION":"53.0548","OBJECT_NAME":"STARLINK-1233","PERIAPSIS":"546.040","APOAPSIS":"548.430","OBJECT_TYPE":"PAYLOAD","MEAN_ANOMALY":"276.9171","SEMIMAJOR_AXIS":"6925.370","MEAN_ELEMENT_THEORY":"SGP4","REF_FRAME":"TEME","CLASSIFICATION_TYPE":"U","BSTAR":"0.00004401800000","ELEMENT_SET_NO":"999","GP_ID":"191396730","MEAN_MOTION_DOT":"0.00000374","TIME_SYSTEM":"UTC","OBJECT_ID":"2020-012AN","LAUNCH_DATE":"2020-02-17","CENTER_NAME":"EARTH","TLE_LINE2":"2 45214  53.0548 149.3150 0001725  83.2015 276.9171 15.06392989101344","REV_AT_EPOCH":"10134","TLE_LINE1":"1 45214U 20012AN  21343.69119211  .00000374  00000-0  44018-4 0  9999","SITE":"AFETR","DECAY_DATE":null,"ARG_OF_PERICENTER":"83.2015","ECCENTRICITY":"0.00017250","EPHEMERIS_TYPE":"0","EPOCH":"2021-12-09T16:35:18.998304","PERIOD":"95.593"}];
